OBJECT_NAME,OBJECT_ID,EPOCH,MEAN_MOTION,ECCENTRICITY,INCLINATION,RA_OF_ASC_NODE,ARG_OF_PERICENTER,MEAN_ANOMALY,EPHEMERIS_TYPE,CLASSIFICATION_TYPE,NORAD_CAT_ID,ELEMENT_SET_NO,REV_AT_EPOCH,BSTAR,MEAN_MOTION_DOT,MEAN_MOTION_DDOT
STARLINK-37970,2026-147C,2026-07-10T19:11:48.704064,15.80938607,.000126,97.2845,227.9341,3.2034,356.9242,0,U,69706,999,316,.14213E-2,.282698E-2,0
STARLINK-37975,2026-147D,2026-07-10T00:56:52.698912,15.80942041,.0001043,97.2843,227.1324,125.2783,234.8583,0,U,69707,999,304,.13787E-2,.273987E-2,0
STARLINK-37972,2026-147E,2026-07-10T19:09:38.322144,15.81016504,.0002499,97.2851,227.9370,170.6950,189.4365,0,U,69708,999,316,.11372E-2,.225475E-2,0
STARLINK-37963,2026-147F,2026-07-10T00:54:42.926976,15.80897501,.00021437,97.2838,227.1314,107.5808,252.5695,0,U,69709,999,304,.15537689E-2,.309433E-2,0
STARLINK-37969,2026-147G,2026-07-10T19:07:28.761024,15.80840661,.0001471,97.2842,227.9401,111.0062,249.1363,0,U,69710,999,316,.45155E-3,.87321E-3,0
STARLINK-37956,2026-147H,2026-07-10T19:06:24.005952,15.80863170,.0001159,97.2845,227.9412,74.1332,286.0064,0,U,69711,999,316,.75966E-3,.148184E-2,0
STARLINK-38043,2026-147J,2026-07-10T08:00:03.000384,15.80838101,.00011413,97.2849,227.4527,108.7453,144.0213,0,U,69712,999,296,-.28368388E-3,-.54198E-3,0
STARLINK-38020,2026-147K,2026-07-10T12:59:24.650592,15.81402224,.0001138,97.2859,227.6765,132.5760,227.5605,0,U,69713,999,312,.14553E-2,.296122E-2,0
STARLINK-38059,2026-147L,2026-07-10T08:00:03.000384,15.80847849,.00008558,97.2849,227.4570,93.5663,167.7436,0,U,69714,999,296,-.33840668E-3,-.64576E-3,0
STARLINK-38061,2026-147M,2026-07-10T09:55:09.151968,15.80865474,.00015783,97.2851,227.5432,36.1176,324.0198,0,U,69715,999,310,.11123024E-2,.218842E-2,0
STARLINK-38060,2026-147N,2026-07-10T09:55:09.466464,15.80949661,.00027629,97.2885,227.5429,58.0194,302.1342,0,U,69716,999,310,.25606446E-2,.52416E-2,0
STARLINK-38040,2026-147P,2026-07-10T20:00:01.999008,15.80853289,.0001262,97.2849,227.9932,90.2575,147.3422,0,U,69717,999,313,-.34137E-3,-.65155E-3,0
STARLINK-37989,2026-147Q,2026-07-10T12:53:35.554848,15.81725931,.000176,97.2849,227.6798,163.9316,196.2009,0,U,69718,999,312,.15133E-2,.313152E-2,0
STARLINK-38039,2026-147R,2026-07-10T12:53:07.505088,15.81001041,.0001294,97.2855,227.6808,335.4308,24.6899,0,U,69719,999,312,.17183E-2,.345258E-2,0
STARLINK-38003,2026-147S,2026-07-10T20:00:01.999008,15.80854640,.00012,97.2848,227.9974,110.6563,139.7639,0,U,69720,999,313,-.34635E-3,-.66099E-3,0
STARLINK-38014,2026-147T,2026-07-10T20:00:01.999008,15.80850465,.0001206,97.2850,227.9995,92.6013,162.0960,0,U,69721,999,313,-.308E-3,-.58835E-3,0
STARLINK-37915,2026-147U,2026-07-10T08:00:03.000384,15.80848892,.00007821,97.2849,227.4705,79.8886,215.6105,0,U,69722,999,305,-.31324161E-3,-.5982E-3,0
STARLINK-38007,2026-147V,2026-07-10T20:00:01.999008,15.80851995,.000131,97.2849,227.9951,83.3604,162.0016,0,U,69723,999,313,-.33309E-3,-.63586E-3,0
STARLINK-38008,2026-147W,2026-07-10T12:47:32.500320,15.81338531,.0003296,97.2864,227.6873,179.5200,180.6073,0,U,69724,999,312,.11975E-2,.241424E-2,0
STARLINK-38021,2026-147X,2026-07-10T12:45:59.069088,15.81657053,.0000596,97.2794,227.6819,189.1235,171.0023,0,U,69725,999,312,.12718E-2,.260745E-2,0
STARLINK-38015,2026-147Y,2026-07-10T20:00:01.999008,15.80874158,.0001281,97.2851,228.0086,97.9416,178.1172,0,U,69726,999,313,-.54352E-3,-.103303E-2,0
STARLINK-38010,2026-147Z,2026-07-10T20:00:01.999008,15.75218899,.0001086,97.2851,227.9909,95.2468,140.0156,0,U,69727,999,313,-.7108E-3,-.104986E-2,0
SXM-11,2026-148A,2026-07-10T17:47:49.486272,1.00471053,.0001176,0.1253,266.0045,41.2793,127.0860,0,U,69728,999,28,0,-.5E-7,0
HAIYANG-2E,2026-149A,2026-07-09T17:14:53.939904,13.79315692,.0001432,99.3447,197.7174,109.3901,250.7406,0,U,69737,999,107,-.12545E-3,-.173E-5,0
CZ-4B R/B,2026-149B,2026-07-10T08:44:04.458336,14.30066392,.01983535,99.3216,199.0375,344.0056,15.4919,0,U,69738,999,144,.40181542E-4,.71E-6,0
STARLINK-38033,2026-150A,2026-07-10T20:00:01.999008,15.80830321,.0001404,97.2846,29.9432,88.1609,214.9630,0,U,69739,999,259,-.16311E-3,-.31293E-3,0
STARLINK-38076,2026-150B,2026-07-10T20:00:01.999008,15.75237663,.0000868,97.2848,29.9364,88.3724,197.2998,0,U,69740,999,259,-.85317E-3,-.125783E-2,0
STARLINK-38074,2026-150C,2026-07-10T20:00:01.999008,15.80832790,.000152,97.2845,29.9497,82.4664,235.3308,0,U,69741,999,259,-.17001E-3,-.3261E-3,0
STARLINK-38041,2026-150D,2026-07-10T20:00:01.999008,15.80831349,.0000904,97.2846,29.9524,104.7330,217.0037,0,U,69742,999,259,-.63803E-4,-.12354E-3,0
STARLINK-38087,2026-150E,2026-07-10T20:00:01.999008,15.80837902,.0001406,97.2842,29.9534,98.3839,228.0035,0,U,69743,999,259,-.21479E-3,-.41132E-3,0
