STARLINK-37970          
1 69706U 26147C   26191.79986926  .00282698  00000+0  14213-2 0  9990
2 69706  97.2845 227.9341 0001260   3.2034 356.9242 15.80938607  3162
STARLINK-37975          
1 69707U 26147D   26191.03949883  .00273987  00000+0  13787-2 0  9995
2 69707  97.2843 227.1324 0001043 125.2783 234.8583 15.80942041  3045
STARLINK-37972          
1 69708U 26147E   26191.79836021  .00225475  00000+0  11372-2 0  9995
2 69708  97.2851 227.9370 0002499 170.6950 189.4365 15.81016504  3163
STARLINK-37963          
1 69709U 26147F   26191.03799684  .00309433  00000+0  15538-2 0  9991
2 69709  97.2838 227.1314 0002143 107.5808 252.5695 15.80897501  3044
STARLINK-37969          
1 69710U 26147G   26191.79686066  .00087321  00000+0  45155-3 0  9993
2 69710  97.2842 227.9401 0001471 111.0062 249.1363 15.80840661  3163
STARLINK-37956          
1 69711U 26147H   26191.79611118  .00148184  00000+0  75966-3 0  9998
2 69711  97.2845 227.9412 0001159  74.1332 286.0064 15.80863170  3169
STARLINK-38043          
1 69712U 26147J   26191.33336806 -.00054198  00000+0 -28368-3 0  9994
2 69712  97.2849 227.4527 0001141 108.7453 144.0213 15.80838101  2967
STARLINK-38020          
1 69713U 26147K   26191.54125753  .00296122  00000+0  14553-2 0  9998
2 69713  97.2859 227.6765 0001138 132.5760 227.5605 15.81402224  3122
STARLINK-38059          
1 69714U 26147L   26191.33336806 -.00064576  00000+0 -33841-3 0  9999
2 69714  97.2849 227.4570 0000855  93.5663 167.7436 15.80847849  2960
STARLINK-38061          
1 69715U 26147M   26191.41330037  .00218842  00000+0  11123-2 0  9992
2 69715  97.2851 227.5432 0001578  36.1176 324.0198 15.80865474  3101
STARLINK-38060          
1 69716U 26147N   26191.41330401  .00524160  00000+0  25606-2 0  9992
2 69716  97.2885 227.5429 0002762  58.0194 302.1342 15.80949661  3103
STARLINK-38040          
1 69717U 26147P   26191.83335647 -.00065155  00000+0 -34137-3 0  9992
2 69717  97.2849 227.9932 0001262  90.2575 147.3422 15.80853289  3133
STARLINK-37989          
1 69718U 26147Q   26191.53721707  .00313152  00000+0  15133-2 0  9991
2 69718  97.2849 227.6798 0001760 163.9316 196.2009 15.81725931  3121
STARLINK-38039          
1 69719U 26147R   26191.53689242  .00345258  00000+0  17183-2 0  9998
2 69719  97.2855 227.6808 0001294 335.4308  24.6899 15.81001041  3120
STARLINK-38003          
1 69720U 26147S   26191.83335647 -.00066099  00000+0 -34635-3 0  9997
2 69720  97.2848 227.9974 0001200 110.6563 139.7639 15.80854640  3135
STARLINK-38014          
1 69721U 26147T   26191.83335647 -.00058835  00000+0 -30800-3 0  9997
2 69721  97.2850 227.9995 0001206  92.6013 162.0960 15.80850465  3134
STARLINK-37915          
1 69722U 26147U   26191.33336806 -.00059820  00000+0 -31324-3 0  9998
2 69722  97.2849 227.4705 0000782  79.8886 215.6105 15.80848892  3058
STARLINK-38007          
1 69723U 26147V   26191.83335647 -.00063586  00000+0 -33309-3 0  9995
2 69723  97.2849 227.9951 0001310  83.3604 162.0016 15.80851995  3136
STARLINK-38008          
1 69724U 26147W   26191.53301505  .00241424  00000+0  11975-2 0  9990
2 69724  97.2864 227.6873 0003296 179.5200 180.6073 15.81338531  3124
STARLINK-38021          
1 69725U 26147X   26191.53193367  .00260745  00000+0  12718-2 0  9999
2 69725  97.2794 227.6819 0000596 189.1235 171.0023 15.81657053  3124
STARLINK-38015          
1 69726U 26147Y   26191.83335647 -.00103303  00000+0 -54352-3 0  9991
2 69726  97.2851 228.0086 0001281  97.9416 178.1172 15.80874158  3139
STARLINK-38010          
1 69727U 26147Z   26191.83335647 -.00104986  00000+0 -71080-3 0  9997
2 69727  97.2851 227.9909 0001086  95.2468 140.0156 15.75218899  3131
SXM-11                  
1 69728U 26148A   26191.74154498 -.00000005  00000+0  00000+0 0  9998
2 69728   0.1253 266.0045 0001176  41.2793 127.0860  1.00471053   284
HAIYANG-2E              
1 69737U 26149A   26190.71867986 -.00000173  00000+0 -12545-3 0  9996
2 69737  99.3447 197.7174 0001432 109.3901 250.7406 13.79315692  1077
CZ-4B R/B               
1 69738U 26149B   26191.36394049  .00000071  00000+0  40182-4 0  9998
2 69738  99.3216 199.0375 0198353 344.0056  15.4919 14.30066392  1442
STARLINK-38033          
1 69739U 26150A   26191.83335647 -.00031293  00000+0 -16311-3 0  9990
2 69739  97.2846  29.9432 0001404  88.1609 214.9630 15.80830321  2594
STARLINK-38076          
1 69740U 26150B   26191.83335647 -.00125783  00000+0 -85317-3 0  9992
2 69740  97.2848  29.9364 0000868  88.3724 197.2998 15.75237663  2599
STARLINK-38074          
1 69741U 26150C   26191.83335647 -.00032610  00000+0 -17001-3 0  9994
2 69741  97.2845  29.9497 0001520  82.4664 235.3308 15.80832790  2595
STARLINK-38041          
1 69742U 26150D   26191.83335647 -.00012354  00000+0 -63803-4 0  9990
2 69742  97.2846  29.9524 0000904 104.7330 217.0037 15.80831349  2596
STARLINK-38087          
1 69743U 26150E   26191.83335647 -.00041132  00000+0 -21479-3 0  9999
2 69743  97.2842  29.9534 0001406  98.3839 228.0035 15.80837902  2595
